OBJECT_NAME,OBJECT_ID,EPOCH,MEAN_MOTION,ECCENTRICITY,INCLINATION,RA_OF_ASC_NODE,ARG_OF_PERICENTER,MEAN_ANOMALY,EPHEMERIS_TYPE,CLASSIFICATION_TYPE,NORAD_CAT_ID,ELEMENT_SET_NO,REV_AT_EPOCH,BSTAR,MEAN_MOTION_DOT,MEAN_MOTION_DDOT
GALAXY 16 (G-16),2006-023A,2026-06-05T03:45:07.583328,1.00269008,.00028332,0.0086,184.7291,251.9959,134.1481,0,U,29236,999,7285,0,-.114E-5,0
EUTELSAT 33F,2006-032A,2026-06-05T06:49:48.311616,1.00273595,.00036228,1.6303,82.3768,347.4452,319.4450,0,U,29270,999,4718,0,.168E-5,0
JCSAT-3A,2006-033A,2026-06-05T05:34:13.864224,1.00272415,.00022273,0.0197,298.0147,141.6441,25.5680,0,U,29272,999,4762,0,-.332E-5,0
KOREASAT 5 (MUGUNGWHA 5),2006-034A,2026-06-05T05:29:56.870880,1.00274385,.00014398,1.7539,83.1288,29.4847,336.5892,0,U,29349,999,4120,0,-.346E-5,0
DIRECTV 9S,2006-043A,2026-06-05T06:11:33.383328,1.00271942,.00051741,2.3896,81.0447,4.0075,160.3454,0,U,29494,999,5126,0,-.101E-5,0
OPTUS D1,2006-043B,2026-06-05T05:41:05.706240,1.00272524,.00038019,3.0037,79.8023,350.3178,60.8251,0,U,29495,999,7200,0,-.171E-5,0
BADR-4,2006-051A,2026-06-04T17:50:03.090912,1.00450212,.00078927,1.9707,81.2738,161.5231,306.4291,0,U,29526,999,5114,0,.167E-5,0
WILDBLUE-1,2006-054A,2026-06-04T14:44:06.739296,1.00271660,.00017859,2.7704,80.6387,5.0378,277.2023,0,U,29643,999,5366,0,-.38E-6,0
SKYNET 5A,2007-007B,2026-06-05T04:27:21.852576,1.00268791,.00040798,5.2713,73.8837,8.6578,333.1110,0,U,30794,999,7057,0,-.259E-5,0
ANIK F3,2007-009A,2026-06-05T06:06:33.861312,1.00270948,.00028145,1.1661,83.9906,349.9015,152.7143,0,U,31102,999,4644,0,.11E-6,0
ASTRA 1L,2007-016A,2026-06-05T06:33:19.889568,1.00271216,.00054635,1.2906,81.6768,2.3447,243.5318,0,U,31306,999,4486,0,-.172E-5,0
GALAXY 17 (G-17),2007-016B,2026-06-05T05:34:57.032256,1.00272989,.00049383,2.9415,80.0511,11.7836,160.5764,0,U,31307,999,6968,0,-.194E-5,0
INTELSAT 11 (IS-11),2007-044B,2026-06-05T04:05:59.881344,0.99053681,.00016843,3.5338,78.8143,75.5225,339.3653,0,U,32253,999,6833,0,-.154E-5,0
WGS F1 (USA 195),2007-046A,2026-06-04T11:38:59.552736,1.00272078,.00005704,0.0505,94.0918,318.3690,332.7373,0,U,32258,999,5220,0,-.255E-5,0
SKYNET 5B,2007-056B,2026-06-05T03:12:38.803680,1.00274236,.00037522,5.2231,73.6448,356.6926,256.4898,0,U,32294,999,6807,0,.151E-5,0
ASTRA 4A,2007-057A,2026-06-04T23:51:04.834944,1.00273538,.00026164,0.0159,320.3279,119.0919,176.5927,0,U,32299,999,5152,0,.45E-6,0
HORIZONS-2,2007-063B,2026-06-05T06:19:21.229824,1.00273453,.00041793,2.5710,80.7714,352.3843,201.6045,0,U,32388,999,6769,0,-.242E-5,0
THURAYA-3,2008-001A,2026-06-05T04:17:21.789888,1.00009968,.00009647,5.9688,35.7800,146.7302,222.8514,0,U,32404,999,6737,0,-.146E-5,0
THOR 5,2008-006A,2026-06-05T06:40:11.731584,1.00270010,.00027571,0.0103,339.8362,107.3224,265.8465,0,U,32487,999,6719,0,0,0
AMC-14,2008-011A,2026-05-27T17:37:22.569600,1.00350219,.00499765,23.9628,20.7255,92.2727,95.7206,0,U,32708,999,6796,0,-.2E-7,0
DIRECTV 11,2008-013A,2026-06-04T21:38:42.269568,1.00270355,.00005747,0.0153,150.9196,236.0221,91.8989,0,U,32729,999,4547,0,-.113E-5,0
ICO G1,2008-016A,2026-06-05T06:13:48.167328,1.00272574,.00023199,5.5306,36.1745,24.5177,193.5847,0,U,32763,999,6642,0,-.161E-5,0
VINASAT-1,2008-018A,2026-06-04T14:11:21.992064,1.00268461,.00014439,0.0162,309.3801,139.3983,149.0364,0,U,32767,999,6646,0,-.316E-5,0
STAR ONE C2,2008-018B,2026-06-05T06:21:50.991264,1.00269748,.00029457,1.2102,82.5720,359.1765,202.4150,0,U,32768,999,6653,0,-.264E-5,0
AMOS-3,2008-022A,2026-06-05T03:23:41.437248,1.00470370,.00018748,0.4237,86.4317,57.1431,191.0852,0,U,32794,999,8221,0,.168E-5,0
GALAXY 18 (G-18),2008-024A,2026-06-05T06:05:18.981024,1.00271785,.00032864,0.0133,44.1361,40.3118,137.5622,0,U,32951,999,4573,0,.37E-6,0
ZHONGXING-9,2008-028A,2026-06-05T04:27:21.852576,1.00269829,.00048654,0.7382,85.5090,329.7073,357.6194,0,U,33051,999,6591,0,-.236E-5,0
SKYNET 5C,2008-030A,2026-06-05T04:52:37.947936,1.00271161,.00042679,3.7579,77.1817,6.3124,225.5288,0,U,33055,999,6583,0,-.128E-5,0
TURKSAT 3A,2008-030B,2026-06-05T05:09:43.809696,1.00271747,.00054338,0.0680,83.4620,341.9234,307.6785,0,U,33056,999,5223,0,.158E-5,0
INTELSAT 25 (IS-25),2008-034A,2026-06-05T05:47:35.083392,0.99015528,.00017539,2.6774,80.4513,14.2506,60.8594,0,U,33153,999,6557,0,-.177E-5,0
ECHOSTAR 11,2008-035A,2026-06-05T05:41:14.277120,1.00271902,.00026172,0.9737,84.3161,335.5739,169.2969,0,U,33207,999,5109,0,-.46E-6,0
SUPERBIRD-C2,2008-038A,2026-06-05T05:36:28.649088,1.00273322,.00060577,2.3298,81.4131,19.6029,12.7632,0,U,33274,999,10561,0,-.294E-5,0
